{
"type": "FeatureCollection",
"name": "raw_legacy_cadastre",
"crs": { "type": "name", "properties": { "name": "urn:ogc:def:crs:EPSG::32643" } },
"features": [
{ "type": "Feature", "properties": { "parcel_id": "P-01", "survey_no": "12/1", "source": "raw_legacy_cadastre", "area_m2": 735.677 }, "geometry": { "type": "Polygon", "coordinates": [ [ [ 379252.217973355611321, 2048200.625914177158847 ], [ 379277.952940127521288, 2048199.1191025597509 ], [ 379277.74411009834148, 2048227.146883383858949 ], [ 379249.784880673047155, 2048227.494325408246368 ], [ 379252.217973355611321, 2048200.625914177158847 ] ] ] } },
{ "type": "Feature", "properties": { "parcel_id": "P-02", "survey_no": "12/2", "source": "raw_legacy_cadastre", "area_m2": 696.508 }, "geometry": { "type": "Polygon", "coordinates": [ [ [ 379272.846450190001633, 2048200.557225700467825 ], [ 379302.264685878879391, 2048198.171623679809272 ], [ 379299.722296888183337, 2048226.532304974738508 ], [ 379276.443393944588024, 2048225.047240121057257 ], [ 379272.846450190001633, 2048200.557225700467825 ] ] ] } },
{ "type": "Feature", "properties": { "parcel_id": "P-03", "survey_no": "12/3", "source": "raw_legacy_cadastre", "area_m2": 526.779 }, "geometry": { "type": "Polygon", "coordinates": [ [ [ 379301.544080658932216, 2048199.517044964013621 ], [ 379320.788518395682331, 2048199.414054657332599 ], [ 379325.254985269391909, 2048224.333831592462957 ], [ 379302.046987596724648, 2048224.23191081546247 ], [ 379301.544080658932216, 2048199.517044964013621 ] ] ] } },
{ "type": "Feature", "properties": { "parcel_id": "P-04", "survey_no": "12/4", "source": "raw_legacy_cadastre", "area_m2": 600.506 }, "geometry": { "type": "Polygon", "coordinates": [ [ [ 379328.428600131592248, 2048200.630793269257993 ], [ 379350.086977444938384, 2048198.765940115787089 ], [ 379349.316799955966417, 2048226.04949045740068 ], [ 379323.981552400044166, 2048224.495579201029614 ], [ 379328.428600131592248, 2048200.630793269257993 ] ] ] } },
{ "type": "Feature", "properties": { "parcel_id": "P-05", "survey_no": "12/5", "source": "raw_legacy_cadastre", "area_m2": 699.493 }, "geometry": { "type": "Polygon", "coordinates": [ [ [ 379348.950603609497193, 2048200.333909727400169 ], [ 379378.946240987512283, 2048201.43692563730292 ], [ 379375.717838008247782, 2048224.951877915067598 ], [ 379348.601620703993831, 2048225.79370960732922 ], [ 379348.950603609497193, 2048200.333909727400169 ] ] ] } },
{ "type": "Feature", "properties": { "parcel_id": "P-06", "survey_no": "12/6", "source": "raw_legacy_cadastre", "area_m2": 615.005 }, "geometry": { "type": "Polygon", "coordinates": [ [ [ 379251.123638520250097, 2048226.012034071842209 ], [ 379276.94464993244037, 2048225.976361260516569 ], [ 379276.874641997448634, 2048251.075084346579388 ], [ 379250.829672676045448, 2048248.324584128102288 ], [ 379251.123638520250097, 2048226.012034071842209 ] ] ] } },
{ "type": "Feature", "properties": { "parcel_id": "P-07", "survey_no": "12/7", "source": "raw_legacy_cadastre", "area_m2": 551.263 }, "geometry": { "type": "Polygon", "coordinates": [ [ [ 379276.369142434094101, 2048225.783739214530215 ], [ 379296.940245204255916, 2048225.749577389797196 ], [ 379299.690048803051468, 2048251.812021918362007 ], [ 379275.556451131240465, 2048249.159601069055498 ], [ 379276.369142434094101, 2048225.783739214530215 ] ] ] } },
{ "type": "Feature", "properties": { "parcel_id": "P-08", "survey_no": "12/8", "source": "raw_legacy_cadastre", "area_m2": 676.771 }, "geometry": { "type": "Polygon", "coordinates": [ [ [ 379298.790619930252433, 2048224.147473051445559 ], [ 379325.216378399170935, 2048222.406353852245957 ], [ 379323.810108039528131, 2048252.450227482011542 ], [ 379301.883171241905075, 2048250.110638352809474 ], [ 379298.790619930252433, 2048224.147473051445559 ] ] ] } },
{ "type": "Feature", "properties": { "parcel_id": "P-09", "survey_no": "12/9", "source": "raw_legacy_cadastre", "area_m2": 741.088 }, "geometry": { "type": "Polygon", "coordinates": [ [ [ 379323.59440286050085, 2048223.888258286518976 ], [ 379353.944012309366371, 2048223.528312050970271 ], [ 379349.745072573248763, 2048250.057805357035249 ], [ 379323.754626116366126, 2048249.995488120242953 ], [ 379323.59440286050085, 2048223.888258286518976 ] ] ] } },
{ "type": "Feature", "properties": { "parcel_id": "P-10", "survey_no": "12/10", "source": "raw_legacy_cadastre", "area_m2": 632.973 }, "geometry": { "type": "Polygon", "coordinates": [ [ [ 379351.679941825510468, 2048223.067746126558632 ], [ 379373.728196208423469, 2048223.026087866397575 ], [ 379373.97568490478443, 2048247.547229306073859 ], [ 379347.76650183723541, 2048251.301354199415073 ], [ 379351.679941825510468, 2048223.067746126558632 ] ] ] } }
]
}
